BEIDOU-3 M26 (C48)      
1 58655U 23207B   26116.54871572 -.00000042  00000+0  00000+0 0  9993
2 58655  55.7115  64.0308 0004970 305.0897  54.8348  1.86229700 15865
BEIDOU-3 M25 (C47)      
1 61186U 24168B   26117.16734703 -.00000064  00000+0  00000+0 0  9990
2 61186  54.5195 304.0138 0003273 319.2909 212.5706  1.86230105 10831
BEIDOU-3 M27 (C49)      
1 61187U 24168C   26116.97760779 -.00000062  00000+0  00000+0 0  9999
2 61187  54.5152 304.0035 0002609  40.2618 139.4025  1.86230201  8308
